FENGYUN 1C DEB          
1 32326U 99025CXT 17346.51643911  .00000197  00000-0  17028-3 0  9990
2 32326  98.4785 237.2245 0398910 347.1378  11.9821 13.64532024518519
